NORAD_CAT_ID,OBJECT_NAME,OBJECT_TYPE,EPOCH,MEAN_MOTION,ECCENTRICITY,INCLINATION,RA_OF_ASC_NODE,ARG_OF_PERICENTER,MEAN_ANOMALY,BSTAR,MEAN_MOTION_DOT,MEAN_MOTION_DDOT,TLE_LINE0,TLE_LINE1,TLE_LINE2,SEMIMAJOR_AXIS,PERIOD,APOGEE,PERIGEE,DECAYED
51792.0,STARLINK-3626,PAYLOAD,2022-11-24 18:26:27,15.08843336,0.0001961,53.2183,340.2777,47.0562,313.0594,5.956600000000001e-05,6.6e-06,0.0,0 STARLINK-3626,1 51792U 22017AA  22328.76837448  .00000660  00000-0  59566-4 0  9997,2 51792  53.2183 340.2777 0001961  47.0562 313.0594 15.08843336 42674,6917.87,95.437,541.092,538.379,0.0
51792.0,STARLINK-3626,PAYLOAD,2022-11-25 07:09:32,15.08837449,0.0001956,53.2182,337.8986,48.1385,311.9774,4.8348e-05,4.81e-06,0.0,0 STARLINK-3626,1 51792U 22017AA  22329.29829834  .00000481  00000-0  48348-4 0  9993,2 51792  53.2182 337.8986 0001956  48.1385 311.9774 15.08837449 42750,6917.888000000001,95.438,541.106,538.4,0.0
51792.0,STARLINK-3626,PAYLOAD,2022-11-26 07:00:19,15.0884811,0.0001955,53.2183,333.4373,52.6768,307.4402,0.00014725,2.057e-05,0.0,0 STARLINK-3626,1 51792U 22017AA  22330.29188977  .00002057  00000-0  14725-3 0  9993,2 51792  53.2183 333.4373 0001955  52.6768 307.4402 15.08848110 42909,6917.856,95.437,541.073,538.368,0.0
51792.0,STARLINK-3626,PAYLOAD,2022-11-27 00:29:33,15.08844504,0.0001798,53.2181,330.165,56.5533,303.5631,9.1433e-05,1.168e-05,0.0,0 STARLINK-3626,1 51792U 22017AA  22331.02053068  .00001168  00000-0  91433-4 0  9991,2 51792  53.2181 330.1650 0001798  56.5533 303.5631 15.08844504 43014,6917.8669999999975,95.437,540.975,538.488,0.0
51792.0,STARLINK-3626,PAYLOAD,2022-11-27 06:51:06,15.08834485,0.0001771,53.2183,328.9766,51.404,308.7111,5.6848e-05,6.17e-06,0.0,0 STARLINK-3626,1 51792U 22017AA  22331.28549734  .00000617  00000-0  56848-4 0  9998,2 51792  53.2183 328.9766 0001771  51.4040 308.7111 15.08834485 43058,6917.897,95.438,540.987,538.5369999999998,0.0
51792.0,STARLINK-3626,PAYLOAD,2022-11-27 16:23:26,15.08826992,0.0001884,53.2176,327.1927,48.2425,311.8728,-2.6229000000000003e-06,-3.3e-06,0.0,0 STARLINK-3626,1 51792U 22017AA  22331.68294576 -.00000330  00000-0 -26229-5 0  9998,2 51792  53.2176 327.1927 0001884  48.2425 311.8728 15.08826992 43116,6917.92,95.438,541.0880000000002,538.482,0.0
51792.0,STARLINK-3626,PAYLOAD,2022-11-28 06:41:54,15.08840979,0.000181,53.2184,324.5202,56.9192,303.1974,1.8712e-05,1e-07,0.0,0 STARLINK-3626,1 51792U 22017AA  22332.27909853  .00000010  00000-0  18712-4 0  9995,2 51792  53.2184 324.5202 0001810  56.9192 303.1974 15.08840979 43206,6917.877,95.437,540.995,538.49,0.0
51792.0,STARLINK-3626,PAYLOAD,2022-11-29 08:08:04,15.08829753,0.000182,53.2177,319.7588,39.9673,320.1453,5.8597e-05,6.44e-06,0.0,0 STARLINK-3626,1 51792U 22017AA  22333.33894620  .00000644  00000-0  58597-4 0  9996,2 51792  53.2177 319.7588 0001820  39.9673 320.1453 15.08829753 43362,6917.9119999999975,95.438,541.036,538.518,0.0
51792.0,STARLINK-3626,PAYLOAD,2022-11-30 07:58:52,15.08829219,0.0001855,53.2184,315.2987,44.2963,315.8177,6.6839e-05,7.75e-06,0.0,0 STARLINK-3626,1 51792U 22017AA  22334.33255168  .00000775  00000-0  66839-4 0  9998,2 51792  53.2184 315.2987 0001855  44.2963 315.8177 15.08829219 43511,6917.913000000001,95.438,541.062,538.495,0.0
51792.0,STARLINK-3626,PAYLOAD,2022-11-30 15:55:47,15.08839933,0.0001612,53.2177,313.8111,54.5951,305.5191,4.8414e-05,4.83e-06,0.0,0 STARLINK-3626,1 51792U 22017AA  22334.66374583  .00000483  00000-0  48414-4 0  9992,2 51792  53.2177 313.8111 0001612  54.5951 305.5191 15.08839933 43569,6917.880999999999,95.438,540.861,538.63,0.0
51792.0,STARLINK-3626,PAYLOAD,2022-12-01 07:49:38,15.08841484,0.0001985,53.2174,310.8371,45.0414,315.0739,0.00014146,1.964e-05,0.0,0 STARLINK-3626,1 51792U 22017AA  22335.32614394  .00001964  00000-0  14146-3 0  9992,2 51792  53.2174 310.8371 0001985  45.0414 315.0739 15.08841484 43662,6917.876,95.437,541.114,538.368,0.0
51792.0,STARLINK-3626,PAYLOAD,2022-12-01 15:46:34,15.08841509,0.0002008,53.2175,309.3505,46.4178,313.698,6.8728e-05,8.06e-06,0.0,0 STARLINK-3626,1 51792U 22017AA  22335.65734598  .00000806  00000-0  68728-4 0  9997,2 51792  53.2175 309.3505 0002008  46.4178 313.6980 15.08841509 43710,6917.876,95.437,541.13,538.352,0.0
51792.0,STARLINK-3626,PAYLOAD,2022-12-01 22:08:07,15.08839989,0.0001964,53.2183,308.1623,39.0215,321.0918,0.00013253,1.822e-05,0.0,0 STARLINK-3626,1 51792U 22017AA  22335.92230405  .00001822  00000-0  13253-3 0  9996,2 51792  53.2183 308.1623 0001964  39.0215 321.0918 15.08839989 43754,6917.88,95.438,541.104,538.387,0.0
51792.0,STARLINK-3626,PAYLOAD,2022-12-02 07:40:25,15.08850607,0.0002011,53.2175,306.3776,44.7707,315.3447,0.00020536,2.983e-05,0.0,0 STARLINK-3626,1 51792U 22017AA  22336.31973458  .00002983  00000-0  20536-3 0  9993,2 51792  53.2175 306.3776 0002011  44.7707 315.3447 15.08850607 43817,6917.848000000001,95.437,541.104,538.322,0.0
51792.0,STARLINK-3626,PAYLOAD,2022-12-03 04:20:26,15.08846098,0.0002045,53.2168,302.5122,45.7741,314.3419,2.2786e-05,7.4e-07,0.0,0 STARLINK-3626,1 51792U 22017AA  22337.18085928  .00000074  00000-0  22786-4 0  9994,2 51792  53.2168 302.5122 0002045  45.7741 314.3419 15.08846098 43949,6917.861999999999,95.437,541.141,538.312,0.0
51792.0,STARLINK-3626,PAYLOAD,2022-12-03 07:31:12,15.08844503,0.000221,53.2169,301.918,44.466,315.6509,-5.093e-05,-1.099e-05,0.0,0 STARLINK-3626,1 51792U 22017AA  22337.31334190 -.00001099  00000-0 -50930-4 0  9999,2 51792  53.2169 301.9180 0002210  44.4660 315.6509 15.08844503 43962,6917.8669999999975,95.437,541.26,538.203,0.0
51792.0,STARLINK-3626,PAYLOAD,2022-12-04 07:21:59,15.08847958,0.0001974,53.2173,297.4556,46.4888,313.6268,-1.8558e-05,-5.84e-06,0.0,0 STARLINK-3626,1 51792U 22017AA  22338.30693770 -.00000584  00000-0 -18558-4 0  9999,2 51792  53.2173 297.4556 0001974  46.4888 313.6268 15.08847958 44118,6917.856,95.437,541.087,538.355,0.0
51792.0,STARLINK-3626,PAYLOAD,2022-12-05 04:02:00,15.08835878,0.0002008,53.2162,293.5902,45.6549,314.4608,9.7121e-05,1.258e-05,0.0,0 STARLINK-3626,1 51792U 22017AA  22339.16806223  .00001258  00000-0  97121-4 0  9993,2 51792  53.2162 293.5902 0002008  45.6549 314.4608 15.08835878 44241,6917.893,95.438,541.1469999999998,538.369,0.0
51792.0,STARLINK-3626,PAYLOAD,2022-12-05 05:37:23,15.08835909,0.0001999,53.2181,293.2942,44.5329,315.5823,7.2222e-05,8.61e-06,0.0,0 STARLINK-3626,1 51792U 22017AA  22339.23430266  .00000861  00000-0  72222-4 0  9995,2 51792  53.2181 293.2942 0001999  44.5329 315.5823 15.08835909 44252,6917.893,95.438,541.141,538.375,0.0
51792.0,STARLINK-3626,PAYLOAD,2022-12-05 13:34:19,15.08839224,0.0002006,53.2174,291.8051,44.0406,316.0746,0.00011007,1.464e-05,0.0,0 STARLINK-3626,1 51792U 22017AA  22339.56550057  .00001464  00000-0  11007-3 0  9995,2 51792  53.2174 291.8051 0002006  44.0406 316.0746 15.08839224 44300,6917.8830000000025,95.438,541.135,538.36,0.0
51792.0,STARLINK-3626,PAYLOAD,2022-12-06 05:28:10,15.08844573,0.0001991,53.2174,288.8335,44.3471,315.768,5.1958e-05,5.39e-06,0.0,0 STARLINK-3626,1 51792U 22017AA  22340.22790047  .00000539  00000-0  51958-4 0  9997,2 51792  53.2174 288.8335 0001991  44.3471 315.7680 15.08844573 44405,6917.866,95.437,541.109,538.354,0.0
51792.0,STARLINK-3626,PAYLOAD,2022-12-06 13:25:06,15.08836775,0.0002066,53.2168,287.3463,42.6173,317.4979,-1.494e-05,-5.26e-06,0.0,0 STARLINK-3626,1 51792U 22017AA  22340.55910747 -.00000526  00000-0 -14940-4 0  9992,2 51792  53.2168 287.3463 0002066  42.6173 317.4979 15.08836775 44458,6917.89,95.438,541.184,538.326,0.0
51792.0,STARLINK-3626,PAYLOAD,2022-12-07 05:18:59,15.088287300000005,0.0002092,53.2177,284.3724,46.8645,313.2522,-0.00010005,-1.88e-05,0.0,0 STARLINK-3626,1 51792U 22017AA  22341.22151958 -.00001880  00000-0 -10005-3 0  9999,2 51792  53.2177 284.3724 0002092  46.8645 313.2522 15.08828730 44555,6917.915,95.438,541.227,538.3330000000002,0.0
51792.0,STARLINK-3626,PAYLOAD,2022-12-07 13:15:54,15.08835618,0.0002052,53.2181,282.8856,46.0577,314.0584,7.4058e-05,8.900000000000001e-06,0.0,0 STARLINK-3626,1 51792U 22017AA  22341.55271222  .00000890  00000-0  74058-4 0  9999,2 51792  53.2181 282.8856 0002052  46.0577 314.0584 15.08835618 44607,6917.894,95.438,541.178,538.339,0.0
51792.0,STARLINK-3626,PAYLOAD,2022-12-08 13:06:40,15.08855556,0.0002077,53.2176,278.4257,46.8266,313.2899,0.00018239,2.617e-05,0.0,0 STARLINK-3626,1 51792U 22017AA  22342.54629902  .00002617  00000-0  18239-3 0  9998,2 51792  53.2176 278.4257 0002077  46.8266 313.2899 15.08855556 44756,6917.833000000001,95.437,541.135,538.261,0.0
51792.0,STARLINK-3626,PAYLOAD,2022-12-09 01:49:45,15.08851201,0.0001841,53.2163,276.0479,41.0788,319.0342,0.0003331,5.019e-05,0.0,0 STARLINK-3626,1 51792U 22017AA  22343.07622107  .00005019  00000-0  33310-3 0  9993,2 51792  53.2163 276.0479 0001841  41.0788 319.0342 15.08851201 44835,6917.846,95.437,540.985,538.438,0.0
51792.0,STARLINK-3626,PAYLOAD,2022-12-09 05:00:31,15.08857089,0.0001897,53.2164,275.4531,43.276,316.8381,0.00034668,5.236e-05,0.0,0 STARLINK-3626,1 51792U 22017AA  22343.20869747  .00005236  00000-0  34668-3 0  9999,2 51792  53.2164 275.4531 0001897  43.2760 316.8381 15.08857089 44853,6917.828,95.436,541.005,538.381,0.0
51792.0,STARLINK-3626,PAYLOAD,2022-12-09 19:19:01,15.08826053,0.0001514,53.2168,272.7779,31.9144,328.194,-1.0864e-05,-4.61e-06,0.0,0 STARLINK-3626,1 51792U 22017AA  22343.80487318 -.00000461  00000-0 -10864-4 0  9995,2 51792  53.2168 272.7779 0001514  31.9144 328.1940 15.08826053 44941,6917.9230000000025,95.438,540.835,538.741,0.0
51792.0,STARLINK-3626,PAYLOAD,2022-12-10 04:51:20,15.08829455,0.0001917,53.2172,270.9915,44.5412,315.5734,-0.00017003,-2.992e-05,0.0,0 STARLINK-3626,1 51792U 22017AA  22344.20231706 -.00002992  00000-0 -17003-3 0  9990,2 51792  53.2172 270.9915 0001917  44.5412 315.5734 15.08829455 45001,6917.913000000001,95.438,541.104,538.451,0.0
